start=new Date('2023-04-02T00:00:00.000Z').valueOf();
sats=[{"MEAN_ELEMENT_THEORY":"SGP4","MEAN_MOTION":"15.08848580","PERIOD":"95.437","EPHEMERIS_TYPE":"0","TLE_LINE2":"2 53262  53.2159 329.9814 0001197  69.0872 291.0248 15.08848580 39118","COUNTRY_CODE":"US","CLASSIFICATION_TYPE":"U","MEAN_ANOMALY":"291.0248","REF_FRAME":"TEME","BSTAR":"0.00044869000000","PERIAPSIS":"538.891","GP_ID":"229277876","OBJECT_TYPE":"PAYLOAD","OBJECT_ID":"2022-086W","SEMIMAJOR_AXIS":"6917.854","SITE":"AFETR","EPOCH":"2023-04-01T22:02:42.664704","APOAPSIS":"540.547","INCLINATION":"53.2159","CENTER_NAME":"EARTH","NORAD_CAT_ID":"53262","REV_AT_EPOCH":"3911","ECCENTRICITY":"0.00011970","FILE":"3877516","TLE_LINE1":"1 53262U 22086W   23091.91854936  .00006862  00000-0  44869-3 0  9992","RCS_SIZE":"LARGE","DECAY_DATE":null,"ELEMENT_SET_NO":"999","OBJECT_NAME":"STARLINK-4085","ARG_OF_PERICENTER":"69.0872","LAUNCH_DATE":"2022-07-24","MEAN_MOTION_DOT":"0.00006862","RA_OF_ASC_NODE":"329.9814","TIME_SYSTEM":"UTC","MEAN_MOTION_DDOT":"0.0000000000000"},{"OBJECT_NAME":"STARLINK-4130","ARG_OF_PERICENTER":"128.1836","ELEMENT_SET_NO":"999","DECAY_DATE":null,"RCS_SIZE":"LARGE","TLE_LINE1":"1 53263U 22086X   23091.84127184  .00013408  00000-0  85900-3 0  9998","LAUNCH_DATE":"2022-07-24","TIME_SYSTEM":"UTC","RA_OF_ASC_NODE":"330.3245","MEAN_MOTION_DOT":"0.00013408","MEAN_MOTION_DDOT":"0.0000000000000","MEAN_ANOMALY":"231.9276","PERIOD":"95.438","COUNTRY_CODE":"US","TLE_LINE2":"2 53263  53.2160 330.3245 0001322 128.1836 231.9276 15.08836283 39102","CLASSIFICATION_TYPE":"U","EPHEMERIS_TYPE":"0","MEAN_ELEMENT_THEORY":"SGP4","MEAN_MOTION":"15.08836283","SEMIMAJOR_AXIS":"6917.892","OBJECT_TYPE":"PAYLOAD","OBJECT_ID":"2022-086X","GP_ID":"229278627","PERIAPSIS":"538.842","BSTAR":"0.00085900000000","REF_FRAME":"TEME","APOAPSIS":"540.671","INCLINATION":"53.2160","CENTER_NAME":"EARTH","EPOCH":"2023-04-01T20:11:25.886976","SITE":"AFETR","FILE":"3877516","ECCENTRICITY":"0.00013220","NORAD_CAT_ID":"53263","REV_AT_EPOCH":"3910"},{"EPOCH":"2023-04-01T21:57:25.007328","APOAPSIS":"540.814","INCLINATION":"53.2156","CENTER_NAME":"EARTH","SITE":"AFETR","ECCENTRICITY":"0.00015940","FILE":"3877516","NORAD_CAT_ID":"53264","REV_AT_EPOCH":"3911","MEAN_ANOMALY":"281.7457","MEAN_ELEMENT_THEORY":"SGP4","MEAN_MOTION":"15.08851160","PERIOD":"95.437","CLASSIFICATION_TYPE":"U","TLE_LINE2":"2 53264  53.2156 329.9972 0001594  78.3714 281.7457 15.08851160 39117","COUNTRY_CODE":"US","EPHEMERIS_TYPE":"0","OBJECT_TYPE":"PAYLOAD","OBJECT_ID":"2022-086Y","SEMIMAJOR_AXIS":"6917.846","BSTAR":"0.00133600000000","REF_FRAME":"TEME","GP_ID":"229278877","PERIAPSIS":"538.609","RA_OF_ASC_NODE":"329.9972","MEAN_MOTION_DOT":"0.00021045","TIME_SYSTEM":"UTC","MEAN_MOTION_DDOT":"0.0000000000000","OBJECT_NAME":"STARLINK-3950","ARG_OF_PERICENTER":"78.3714","RCS_SIZE":"LARGE","TLE_LINE1":"1 53264U 22086Y   23091.91487277  .00021045  00000-0  13360-2 0  9995","ELEMENT_SET_NO":"999","DECAY_DATE":null,"LAUNCH_DATE":"2022-07-24"},{"REF_FRAME":"TEME","BSTAR":"0.00026104000000","GP_ID":"229279127","PERIAPSIS":"539.006","OBJECT_TYPE":"PAYLOAD","OBJECT_ID":"2022-086Z","SEMIMAJOR_AXIS":"6917.898","MEAN_MOTION":"15.08834156","MEAN_ELEMENT_THEORY":"SGP4","COUNTRY_CODE":"US","TLE_LINE2":"2 53265  53.2173 330.3563 0001094  92.2645 267.8472 15.08834156 39109","CLASSIFICATION_TYPE":"U","EPHEMERIS_TYPE":"0","PERIOD":"95.438","MEAN_ANOMALY":"267.8472","REV_AT_EPOCH":"3910","NORAD_CAT_ID":"53265","ECCENTRICITY":"0.00010940","FILE":"3877516","SITE":"AFETR","EPOCH":"2023-04-01T20:00:50.114304","INCLINATION":"53.2173","CENTER_NAME":"EARTH","APOAPSIS":"540.520","LAUNCH_DATE":"2022-07-24","TLE_LINE1":"1 53265U 22086Z   23091.83391336  .00003868  00000-0  26104-3 0  9991","RCS_SIZE":"LARGE","DECAY_DATE":null,"ELEMENT_SET_NO":"999","ARG_OF_PERICENTER":"92.2645","OBJECT_NAME":"STARLINK-4097","MEAN_MOTION_DDOT":"0.0000000000000","RA_OF_ASC_NODE":"330.3563","MEAN_MOTION_DOT":"0.00003868","TIME_SYSTEM":"UTC"},{"LAUNCH_DATE":"2022-07-24","ELEMENT_SET_NO":"999","DECAY_DATE":null,"RCS_SIZE":"LARGE","TLE_LINE1":"1 53266U 22086AA  23091.83759101  .00001571  00000-0  11683-3 0  9995","OBJECT_NAME":"STARLINK-4058","ARG_OF_PERICENTER":"114.3590","MEAN_MOTION_DDOT":"0.0000000000000","TIME_SYSTEM":"UTC","MEAN_MOTION_DOT":"0.00001571","RA_OF_ASC_NODE":"330.3424","GP_ID":"229278377","PERIAPSIS":"538.834","REF_FRAME":"TEME","BSTAR":"0.00011683000000","SEMIMAJOR_AXIS":"6917.912","OBJECT_TYPE":"PAYLOAD","OBJECT_ID":"2022-086AA","PERIOD":"95.438","EPHEMERIS_TYPE":"0","TLE_LINE2":"2 53266  53.2157 330.3424 0001364 114.3590 245.7545 15.08829592 39107","COUNTRY_CODE":"US","CLASSIFICATION_TYPE":"U","MEAN_ELEMENT_THEORY":"SGP4","MEAN_MOTION":"15.08829592","MEAN_ANOMALY":"245.7545","NORAD_CAT_ID":"53266","REV_AT_EPOCH":"3910","FILE":"3877516","ECCENTRICITY":"0.00013640","SITE":"AFETR","APOAPSIS":"540.721","CENTER_NAME":"EARTH","INCLINATION":"53.2157","EPOCH":"2023-04-01T20:06:07.863264"},{"ELEMENT_SET_NO":"999","DECAY_DATE":null,"RCS_SIZE":"LARGE","TLE_LINE1":"1 53267U 22086AB  23091.95903194  .00005691  00000-0  37531-3 0  9999","OBJECT_NAME":"STARLINK-4060","ARG_OF_PERICENTER":"100.9616","LAUNCH_DATE":"2022-07-24","TIME_SYSTEM":"UTC","RA_OF_ASC_NODE":"329.7982","MEAN_MOTION_DOT":"0.00005691","MEAN_MOTION_DDOT":"0.0000000000000","PERIOD":"95.437","CLASSIFICATION_TYPE":"U","TLE_LINE2":"2 53267  53.2179 329.7982 0000952 100.9616 259.1484 15.08841890 39123","COUNTRY_CODE":"US","EPHEMERIS_TYPE":"0","MEAN_ELEMENT_THEORY":"SGP4","MEAN_MOTION":"15.08841890","MEAN_ANOMALY":"259.1484","PERIAPSIS":"539.081","GP_ID":"229278127","BSTAR":"0.00037531000000","REF_FRAME":"TEME","SEMIMAJOR_AXIS":"6917.875","OBJECT_TYPE":"PAYLOAD","OBJECT_ID":"2022-086AB","SITE":"AFETR","APOAPSIS":"540.398","INCLINATION":"53.2179","CENTER_NAME":"EARTH","EPOCH":"2023-04-01T23:01:00.359616","NORAD_CAT_ID":"53267","REV_AT_EPOCH":"3912","FILE":"3877516","ECCENTRICITY":"0.00009520"},{"BSTAR":"0.00048937000000","REF_FRAME":"TEME","GP_ID":"229279377","PERIAPSIS":"539.072","OBJECT_ID":"2022-086AC","OBJECT_TYPE":"PAYLOAD","SEMIMAJOR_AXIS":"6917.887","MEAN_MOTION":"15.08837919","MEAN_ELEMENT_THEORY":"SGP4","TLE_LINE2":"2 53268  53.2169 329.7824 0000982  98.8283 261.2820 15.08837919 39121","COUNTRY_CODE":"US","CLASSIFICATION_TYPE":"U","EPHEMERIS_TYPE":"0","PERIOD":"95.438","MEAN_ANOMALY":"261.2820","REV_AT_EPOCH":"3912","NORAD_CAT_ID":"53268","ECCENTRICITY":"0.00009820","FILE":"3877516","SITE":"AFETR","EPOCH":"2023-04-01T23:06:18.156960","CENTER_NAME":"EARTH","INCLINATION":"53.2169","APOAPSIS":"540.431","LAUNCH_DATE":"2022-07-24","RCS_SIZE":"LARGE","TLE_LINE1":"1 53268U 22086AC  23091.96271015  .00007509  00000-0  48937-3 0  9993","DECAY_DATE":null,"ELEMENT_SET_NO":"999","ARG_OF_PERICENTER":"98.8283","OBJECT_NAME":"STARLINK-4109","MEAN_MOTION_DDOT":"0.0000000000000","RA_OF_ASC_NODE":"329.7824","MEAN_MOTION_DOT":"0.00007509","TIME_SYSTEM":"UTC"},{"APOAPSIS":"540.873","INCLINATION":"53.2172","CENTER_NAME":"EARTH","EPOCH":"2023-04-01T21:16:20.877600","SITE":"AFETR","FILE":"3877516","ECCENTRICITY":"0.00016080","NORAD_CAT_ID":"53269","REV_AT_EPOCH":"3924","MEAN_ANOMALY":"269.6065","PERIOD":"95.438","TLE_LINE2":"2 53269  53.2172 320.1212 0001608  90.5112 269.6065 15.08835024 39249","COUNTRY_CODE":"US","EPHEMERIS_TYPE":"0","CLASSIFICATION_TYPE":"U","MEAN_ELEMENT_THEORY":"SGP4","MEAN_MOTION":"15.08835024","SEMIMAJOR_AXIS":"6917.896","OBJECT_TYPE":"PAYLOAD","OBJECT_ID":"2022-086AD","PERIAPSIS":"538.648","GP_ID":"229279627","BSTAR":"0.00023184000000","REF_FRAME":"TEME","TIME_SYSTEM":"UTC","MEAN_MOTION_DOT":"0.00003403","RA_OF_ASC_NODE":"320.1212","MEAN_MOTION_DDOT":"0.0000000000000","OBJECT_NAME":"STARLINK-4057","ARG_OF_PERICENTER":"90.5112","ELEMENT_SET_NO":"999","DECAY_DATE":null,"RCS_SIZE":"LARGE","TLE_LINE1":"1 53269U 22086AD  23091.88635275  .00003403  00000-0  23184-3 0  9993","LAUNCH_DATE":"2022-07-24"},{"ARG_OF_PERICENTER":"91.1318","OBJECT_NAME":"STARLINK-4069","ELEMENT_SET_NO":"999","DECAY_DATE":null,"RCS_SIZE":"LARGE","TLE_LINE1":"1 53271U 22086AF  23091.81275560  .00001775  00000-0  12963-3 0  9999","LAUNCH_DATE":"2022-07-24","TIME_SYSTEM":"UTC","MEAN_MOTION_DOT":"0.00001775","RA_OF_ASC_NODE":"320.4481","MEAN_MOTION_DDOT":"0.0000000000000","MEAN_ANOMALY":"268.9814","TLE_LINE2":"2 53271  53.2165 320.4481 0001226  91.1318 268.9814 15.08828438 39230","EPHEMERIS_TYPE":"0","COUNTRY_CODE":"US","CLASSIFICATION_TYPE":"U","PERIOD":"95.438","MEAN_MOTION":"15.08828438","MEAN_ELEMENT_THEORY":"SGP4","SEMIMAJOR_AXIS":"6917.916","OBJECT_ID":"2022-086AF","OBJECT_TYPE":"PAYLOAD","GP_ID":"229277877","PERIAPSIS":"538.933","BSTAR":"0.00012963000000","REF_FRAME":"TEME","CENTER_NAME":"EARTH","INCLINATION":"53.2165","APOAPSIS":"540.629","EPOCH":"2023-04-01T19:30:22.083840","SITE":"AFETR","FILE":"3877516","ECCENTRICITY":"0.00012260","REV_AT_EPOCH":"3923","NORAD_CAT_ID":"53271"},{"MEAN_MOTION_DDOT":"0.0000000000000","RA_OF_ASC_NODE":"320.1015","MEAN_MOTION_DOT":"0.00014389","TIME_SYSTEM":"UTC","LAUNCH_DATE":"2022-07-24","RCS_SIZE":"LARGE","TLE_LINE1":"1 53272U 22086AG  23091.89003619  .00014389  00000-0  92054-3 0  9996","ELEMENT_SET_NO":"999","DECAY_DATE":null,"OBJECT_NAME":"STARLINK-4122","ARG_OF_PERICENTER":"92.2344","NORAD_CAT_ID":"53272","REV_AT_EPOCH":"3924","ECCENTRICITY":"0.00012310","FILE":"3877516","SITE":"AFETR","EPOCH":"2023-04-01T21:21:39.126816","APOAPSIS":"540.624","INCLINATION":"53.2168","CENTER_NAME":"EARTH","BSTAR":"0.00092054000000","REF_FRAME":"TEME","PERIAPSIS":"538.921","GP_ID":"229278628","OBJECT_TYPE":"PAYLOAD","OBJECT_ID":"2022-086AG","SEMIMAJOR_AXIS":"6917.908","MEAN_ELEMENT_THEORY":"SGP4","MEAN_MOTION":"15.08831051","PERIOD":"95.438","TLE_LINE2":"2 53272  53.2168 320.1015 0001231  92.2344 267.8789 15.08831051 39246","COUNTRY_CODE":"US","EPHEMERIS_TYPE":"0","CLASSIFICATION_TYPE":"U","MEAN_ANOMALY":"267.8789"}];
